TERRA                   
1 25994U 99068A   21323.21226248  .00000099  00000-0  31929-4 0  9995
2 25994  98.1625  34.6866 0001154 100.1316 318.7234 14.57134757166003
